RASCOM-QAF 1R           
1 36831U 10037B   20002.37021888  .00000028  00000-0  00000+0 0  9992
2 36831   0.0171  66.9017 0006264 216.5246 314.2106  1.00271008 34648
AEHF-1 (USA 214)        
1 36868U 10039A   20002.37048059  .00000036  00000-0  00000+0 0  9992
2 36868   2.3533 100.8505 0002001 193.7114 304.2447  1.00273130 34791
CHINASAT 6A (ZX 6A)     
1 37150U 10042A   20002.39464498 -.00000344  00000-0  00000+0 0  9995
2 37150   0.0510 253.6923 0003682 219.3290 255.5888  1.00264038 34269
QZS-1 (MICHIBIKI-1)     
1 37158U 10045A   20001.71924685 -.00000115  00000-0  00000+0 0  9996
2 37158  41.4866 145.9743 0754495 270.4241  81.9707  1.00263192 34061
XM-5                    
1 37185U 10053A   20001.85022889 -.00000196  00000-0  00000-0 0  9995
2 37185   0.0177   0.1588 0001952  64.9744 256.6854  1.00270697 33840
BSAT-3B                 
1 37207U 10056B   20001.92610413 -.00000341  00000-0  00000-0 0  9999
2 37207   0.0643 309.3853 0004320 352.8339 242.0574  1.00269943 28555
BEIDOU 6                
1 37210U 10057A   20001.89908110 -.00000104  00000-0  00000-0 0  9991
2 37210   0.8702  50.1407 0006727 170.2018   4.2618  1.00273526 33632
SKYTERRA 1              
1 37218U 10061A   20001.84700116 -.00000108  00000-0  00000-0 0  9999
2 37218   2.2435 352.9472 0001297 287.6994  23.9100  1.00272285 33553
ZHONGXING-20A           
1 37234U 10064A   20001.82065584 -.00000342  00000-0  00000-0 0  9991
2 37234   0.4689 100.0405 0003563 192.2372 230.5100  1.00272296 33333
HYLAS 1                 
1 37237U 10065A   20001.85145020 -.00000224  00000-0  00000-0 0  9991
2 37237   0.0555 295.0627 0001969 342.9046  50.5139  1.00271247 33332
INTELSAT 17 (IS-17)     
1 37238U 10065B   20001.87112392  .00000007  00000-0  00000-0 0  9998
2 37238   0.0285  83.7106 0002679 220.4677 176.3905  1.00272016 29794
BEIDOU 7                
1 37256U 10068A   20001.83971955 -.00000219  00000-0  10000-3 0  9995
2 37256  51.7639 300.3227 0070400 210.7228  10.1141  1.00258445 33155
EUTELSAT KA-SAT 9A      
1 37258U 10069A   20002.37144019  .00000072  00000-0  00000+0 0  9992
2 37258   0.0161  19.0205 0002882 327.9530 257.2011  1.00273373 33179
HISPASAT 30W-5          
1 37264U 10070A   20001.86122062 -.00000207  00000-0  00000-0 0  9990
2 37264   0.0135 100.3194 0002574 169.3244 111.3624  1.00271457 29532
KOREASAT 6              
1 37265U 10070B   20002.11716135 -.00000352  00000-0  00000+0 0  9990
2 37265   0.0102  28.6736 0001560 280.1091 310.6373  1.00268194 33036
BEIDOU 8                
1 37384U 11013A   20001.80759705 -.00000201  00000-0  10000-3 0  9993
2 37384  59.0414  63.3096 0046746 206.3564 238.6929  1.00252597 32038
INTELSAT NEW DAWN       
1 37392U 11016A   20002.08908128  .00000165  00000-0  00000+0 0  9994
2 37392   0.0375 218.9378 0000412 269.6108  37.5169  1.00274147 31874
YAHSAT 1A               
1 37393U 11016B   20002.18284370  .00000111  00000-0  00000+0 0  9993
2 37393   0.0162   9.8024 0002706 265.3815 304.4143  1.00270575 31914
SBIRS GEO-1 (USA 230)   
1 37481U 11019A   20002.09771878  .00000002  00000-0  00000+0 0  9997
2 37481   2.2511 337.2441 0001867 302.8796 282.4583  1.00271976 31691
TELSTAR 14R             
1 37602U 11021A   20002.35713347 -.00000270  00000-0  00000+0 0  9999
2 37602   0.0147  21.1007 0001573   7.5375 138.3747  1.00271815 32144
GSAT-8                  
1 37605U 11022A   20002.31507623  .00000095  00000-0  00000+0 0  9991
2 37605   0.0156  28.8841 0008614 240.5300   0.5242  1.00270219 31592
ST-2                    
1 37606U 11022B   20002.10743965 -.00000201  00000-0  00000+0 0  9990
2 37606   0.0161 330.5227 0001459 326.9785 290.3683  1.00269377 31609
CHINASAT 10 (ZX 10)     
1 37677U 11026A   19365.74070660 -.00000346  00000-0  00000+0 0  9997
2 37677   0.0935 270.1798 0037600 293.8486 273.0177  1.00268842 31304
TIANLIAN 1-02           
1 37737U 11032A   20001.90126200 -.00000010  00000-0  00000-0 0  9999
2 37737   2.7417  74.1515 0013143 125.5083  36.6815  1.00271750 31072
GSAT-12                 
1 37746U 11034A   20001.59864751 -.00000157  00000-0  00000-0 0  9998
2 37746   0.0849 275.4101 0005876 130.7417 353.0477  1.00271172 19830
SES-3                   
1 37748U 11035A   20002.36996562 -.00000092  00000-0  00000+0 0  9990
2 37748   0.0223  56.6202 0002014 222.4454 212.5880  1.00272070 31053
KAZSAT-2                
1 37749U 11035B   20002.32341146 -.00000188  00000-0  00000+0 0  9995
2 37749   0.0443 182.6849 0000927 176.1597 305.5031  1.00273930 30921
BEIDOU 9                
1 37763U 11038A   20002.30767249 -.00000002  00000-0  10000-3 0  9998
2 37763  54.4262 186.9603 0066040 224.1008 256.1690  1.00284932 31009
ASTRA 1N                
1 37775U 11041A   20002.25574877  .00000129  00000-0  00000+0 0  9996
2 37775   0.0372  22.7143 0002579 321.2296 228.6865  1.00266671 30751
BSAT-3C (JCSAT-110R)    
1 37776U 11041B   20001.92609987 -.00000342  00000-0  00000-0 0  9990
2 37776   0.0125 357.1915 0000123  50.3469 136.8365  1.00273531 26848
PAKSAT-1R               
1 37779U 11042A   20002.23369441  .00000164  00000-0  00000+0 0  9997
2 37779   0.0437 211.2401 0002770  68.5997 303.6197  1.00271202 30636
CHINASAT 1A (ZX 1A)     
1 37804U 11047A   20001.92784163 -.00000329  00000-0  00000-0 0  9993
2 37804   0.0462 121.8787 0002232 220.7707 222.2262  1.00269021 30433
COSMOS 2473             
1 37806U 11048A   20001.93633089 -.00000099  00000-0  00000-0 0  9991
2 37806   0.0664 101.8757 0002102 187.8878 134.8294  1.00273051 30422
SES-2                   
1 37809U 11049A   20002.35233549 -.00000186  00000-0  00000+0 0  9995
2 37809   0.0081  20.9162 0002454 258.0801 222.3079  1.00272103 30360
ARABSAT-5C              
1 37810U 11049B   20002.23011772  .00000133  00000-0  00000+0 0  9997
2 37810   0.0594   3.2901 0002460 261.2153 299.6753  1.00267737 30261
EUTELSAT 7 WEST A       
1 37816U 11051A   20002.04007510 -.00000051  00000-0  00000+0 0  9990
2 37816   0.0631 348.5593 0006156 225.8909 253.8028  1.00271667 30323
QUETZSAT 1              
1 37826U 11054A   20001.85188637 -.00000233  00000-0  00000-0 0  9995
2 37826   0.0272  55.4913 0002616 221.4929  53.6455  1.00272113 26249
INTELSAT 18 (IS-18)     
1 37834U 11056A   20001.83129866  .00000061  00000-0  00000-0 0  9991
2 37834   0.0177 306.0277 0001963 341.5719 292.6035  1.00271968 30291
EUTELSAT 16A            
1 37836U 11057A   20002.08576630  .00000114  00000-0  00000+0 0  9995
2 37836   0.0639   2.0626 0004932 277.8990 228.1248  1.00274346 30145
VIASAT-1                
1 37843U 11059A   20001.66451947 -.00000015  00000-0  00000+0 0  9992
2 37843   0.0213  32.3751 0002555 247.4977 305.0304  1.00269002 30627
ASIASAT 7               
1 37933U 11069A   20002.11229626 -.00000324  00000-0  00000+0 0  9994
2 37933   0.0190  67.8779 0001036 193.3481 345.9034  1.00269342 29815
BEIDOU 10               
1 37948U 11073A   20001.90761797 -.00000153  00000-0  10000-3 0  9996
2 37948  51.8465 299.8922 0064167 213.9179   7.3802  1.00292336 29758
LUCH 5A                 
1 37951U 11074B   20001.90047688 -.00000037  00000-0  00000-0 0  9994
2 37951   2.8938 120.4874 0001686 162.8922 308.8198  1.00268940 29541
NIGCOMSAT 1R            
1 38014U 11077A   20002.09100046  .00000154  00000-0  00000+0 0  9995
2 38014   0.0443 206.1170 0002910 188.8189 141.5195  1.00269973 29386
FENGYUN 2F              
1 38049U 12002A   20002.22395498 -.00000347  00000-0  00000+0 0  9999
2 38049   1.6827  83.3959 0002358 345.4919 225.0966  1.00266435 29244
WGS F4 (USA 233)        
1 38070U 12003A   20001.81306632 -.00000206  00000-0  00000-0 0  9995
2 38070   0.0184  21.9965 0000359 171.0526 288.9884  1.00270647 20505
SES-4                   
1 38087U 12007A   20002.04563213 -.00000159  00000-0  00000+0 0  9999
2 38087   0.0101  16.8447 0002479 279.2539 159.4746  1.00271739 28847
BEIDOU 11               
1 38091U 12008A   20002.16599920  .00000066  00000-0  00000+0 0  9998
2 38091   1.8073  68.6336 0006547 272.1761 238.9019  1.00270971 28832
MUOS-1                  
1 38093U 12009A   20001.84717563 -.00000118  00000-0  00000-0 0  9990
2 38093   2.5619   1.7587 0056062   4.2798 299.9020  1.00271638 28790
INTELSAT 22 (IS-22)     
1 38098U 12011A   20001.82757847 -.00000050  00000-0  00000-0 0  9990
2 38098   0.0331 295.2477 0002078 359.0052 176.7091  1.00271665 28182
APSTAR 7                
1 38107U 12013A   20001.97132874 -.00000092  00000-0  00000-0 0  9992
2 38107   0.0297  67.5963 0002047 212.6004 247.0333  1.00271366 28528
YAHSAT 1B               
1 38245U 12016A   20002.31507623  .00000137  00000-0  00000+0 0  9993
2 38245   0.0199  42.0807 0002743 243.1996 337.1580  1.00270357 28275
AEHF-2 (USA 235)        
1 38254U 12019A   20001.85371833 -.00000267  00000-0  00000-0 0  9992
2 38254   1.7864  39.8735 0002270 253.8002  47.1318  1.00272967 27205
JCSAT-13                
1 38331U 12023A   20001.86167712 -.00000348  00000-0  00000-0 0  9993
2 38331   0.0124  87.7095 0002191 202.8770 244.5864  1.00270313 27887
VINASAT-2               
1 38332U 12023B   20001.89349799 -.00000320  00000-0  00000-0 0  9994
2 38332   0.0340 300.7102 0001924 341.7249 272.0659  1.00271152 23024
NIMIQ 6                 
1 38342U 12026A   20002.35155035 -.00000164  00000-0  00000+0 0  9993
2 38342   0.0260  73.7483 0002584 182.1307 241.0390  1.00271485 27953
CHINASAT 2A (ZX 2A)     
1 38352U 12028A   20001.86108253 -.00000284  00000-0  00000-0 0  9995
2 38352   0.0392 149.3332 0000961 153.0381 206.8524  1.00271567 27734
INTELSAT 19 (IS-19)     
1 38356U 12030A   20002.33104987 -.00000046  00000-0  00000+0 0  9990
2 38356   0.0180 350.6611 0002867 294.1580 101.7914  1.00272773 27876
ECHOSTAR 17             
1 38551U 12035A   20001.84569262 -.00000066  00000-0  00000-0 0  9991
2 38551   0.0178  28.8258 0002209 250.5045  18.9687  1.00272511 27420
